[
    {
        "OBJECT_NAME": "SL-14 R/B",
        "OBJECT_ID": "1987-024B",
        "EPOCH": "2026-05-30T13:52:04.914624",
        "MEAN_MOTION": 14.86200327,
        "ECCENTRICITY": 0.0018054,
        "INCLINATION": 82.5291,
        "RA_OF_ASC_NODE": 15.803,
        "ARG_OF_PERICENTER": 354.5431,
        "MEAN_ANOMALY": 5.5585,
        "EPHEMERIS_TYPE": 0,
        "CLASSIFICATION_TYPE": "U",
        "NORAD_CAT_ID": 17567,
        "ELEMENT_SET_NO": 999,
        "REV_AT_EPOCH": 10029,
        "BSTAR": 5.3843e-05,
        "MEAN_MOTION_DOT": 4.98e-06,
        "MEAN_MOTION_DDOT": 0
    },
    {
        "OBJECT_NAME": "COSMOS 1833",
        "OBJECT_ID": "1987-027A",
        "EPOCH": "2026-05-30T11:33:27.504576",
        "MEAN_MOTION": 14.13037605,
        "ECCENTRICITY": 0.00224527,
        "INCLINATION": 70.9142,
        "RA_OF_ASC_NODE": 154.0865,
        "ARG_OF_PERICENTER": 84.6278,
        "MEAN_ANOMALY": 275.7404,
        "EPHEMERIS_TYPE": 0,
        "CLASSIFICATION_TYPE": "U",
        "NORAD_CAT_ID": 17589,
        "ELEMENT_SET_NO": 999,
        "REV_AT_EPOCH": 2187,
        "BSTAR": 0.00014815158,
        "MEAN_MOTION_DOT": 2.29e-06,
        "MEAN_MOTION_DDOT": 0
    },
    {
        "OBJECT_NAME": "SL-16 R/B",
        "OBJECT_ID": "1987-027B",
        "EPOCH": "2026-05-30T20:27:28.192032",
        "MEAN_MOTION": 14.17169087,
        "ECCENTRICITY": 0.0005652,
        "INCLINATION": 71.0019,
        "RA_OF_ASC_NODE": 103.3566,
        "ARG_OF_PERICENTER": 332.6521,
        "MEAN_ANOMALY": 27.4304,
        "EPHEMERIS_TYPE": 0,
        "CLASSIFICATION_TYPE": "U",
        "NORAD_CAT_ID": 17590,
        "ELEMENT_SET_NO": 999,
        "REV_AT_EPOCH": 2698,
        "BSTAR": -3.9094e-05,
        "MEAN_MOTION_DOT": -1.27e-06,
        "MEAN_MOTION_DDOT": 0
    },
    {
        "OBJECT_NAME": "SL-14 R/B",
        "OBJECT_ID": "1987-038B",
        "EPOCH": "2026-05-30T14:45:20.605248",
        "MEAN_MOTION": 14.85433466,
        "ECCENTRICITY": 0.0017759,
        "INCLINATION": 82.5022,
        "RA_OF_ASC_NODE": 219.6231,
        "ARG_OF_PERICENTER": 252.3335,
        "MEAN_ANOMALY": 107.5942,
        "EPHEMERIS_TYPE": 0,
        "CLASSIFICATION_TYPE": "U",
        "NORAD_CAT_ID": 17912,
        "ELEMENT_SET_NO": 999,
        "REV_AT_EPOCH": 9139,
        "BSTAR": 5.226e-05,
        "MEAN_MOTION_DOT": 4.75e-06,
        "MEAN_MOTION_DDOT": 0
    },
    {
        "OBJECT_NAME": "COSMOS 1844",
        "OBJECT_ID": "1987-041A",
        "EPOCH": "2026-05-30T15:22:46.504128",
        "MEAN_MOTION": 14.14569436,
        "ECCENTRICITY": 0.0033267,
        "INCLINATION": 70.8998,
        "RA_OF_ASC_NODE": 221.3166,
        "ARG_OF_PERICENTER": 260.437,
        "MEAN_ANOMALY": 99.2992,
        "EPHEMERIS_TYPE": 0,
        "CLASSIFICATION_TYPE": "U",
        "NORAD_CAT_ID": 17973,
        "ELEMENT_SET_NO": 999,
        "REV_AT_EPOCH": 1517,
        "BSTAR": 6.8261e-05,
        "MEAN_MOTION_DOT": 8.3e-07,
        "MEAN_MOTION_DDOT": 0
    },
    {
        "OBJECT_NAME": "SL-14 R/B",
        "OBJECT_ID": "1987-055B",
        "EPOCH": "2026-05-30T20:19:30.507168",
        "MEAN_MOTION": 14.85696526,
        "ECCENTRICITY": 0.0022136,
        "INCLINATION": 82.499,
        "RA_OF_ASC_NODE": 271.5749,
        "ARG_OF_PERICENTER": 101.3234,
        "MEAN_ANOMALY": 259.0471,
        "EPHEMERIS_TYPE": 0,
        "CLASSIFICATION_TYPE": "U",
        "NORAD_CAT_ID": 18153,
        "ELEMENT_SET_NO": 999,
        "REV_AT_EPOCH": 8213,
        "BSTAR": 6.133e-05,
        "MEAN_MOTION_DOT": 5.59e-06,
        "MEAN_MOTION_DDOT": 0
    },
    {
        "OBJECT_NAME": "COSMOS 1867",
        "OBJECT_ID": "1987-060A",
        "EPOCH": "2026-05-30T19:23:05.653248",
        "MEAN_MOTION": 14.31513686,
        "ECCENTRICITY": 0.0016162,
        "INCLINATION": 65.011,
        "RA_OF_ASC_NODE": 76.7299,
        "ARG_OF_PERICENTER": 281.9229,
        "MEAN_ANOMALY": 78.0043,
        "EPHEMERIS_TYPE": 0,
        "CLASSIFICATION_TYPE": "U",
        "NORAD_CAT_ID": 18187,
        "ELEMENT_SET_NO": 999,
        "REV_AT_EPOCH": 3169,
        "BSTAR": 2.2942e-05,
        "MEAN_MOTION_DOT": -3.9e-07,
        "MEAN_MOTION_DDOT": 0
    },
    {
        "OBJECT_NAME": "COSMOS 1933",
        "OBJECT_ID": "1988-020A",
        "EPOCH": "2026-05-30T12:15:38.202912",
        "MEAN_MOTION": 15.18593419,
        "ECCENTRICITY": 0.00022469,
        "INCLINATION": 82.5118,
        "RA_OF_ASC_NODE": 169.9388,
        "ARG_OF_PERICENTER": 274.8766,
        "MEAN_ANOMALY": 85.2211,
        "EPHEMERIS_TYPE": 0,
        "CLASSIFICATION_TYPE": "U",
        "NORAD_CAT_ID": 18958,
        "ELEMENT_SET_NO": 999,
        "REV_AT_EPOCH": 6264,
        "BSTAR": 0.00019114073,
        "MEAN_MOTION_DOT": 3.982e-05,
        "MEAN_MOTION_DDOT": 0
    },
    {
        "OBJECT_NAME": "SL-3 R/B",
        "OBJECT_ID": "1988-032B",
        "EPOCH": "2026-05-30T19:21:35.064576",
        "MEAN_MOTION": 15.20691142,
        "ECCENTRICITY": 0.0024061,
        "INCLINATION": 97.5244,
        "RA_OF_ASC_NODE": 133.8677,
        "ARG_OF_PERICENTER": 310.3182,
        "MEAN_ANOMALY": 49.595,
        "EPHEMERIS_TYPE": 0,
        "CLASSIFICATION_TYPE": "U",
        "NORAD_CAT_ID": 19046,
        "ELEMENT_SET_NO": 999,
        "REV_AT_EPOCH": 6458,
        "BSTAR": 0.00025231,
        "MEAN_MOTION_DOT": 5.515e-05,
        "MEAN_MOTION_DDOT": 0
    },
    {
        "OBJECT_NAME": "SL-16 R/B",
        "OBJECT_ID": "1988-039B",
        "EPOCH": "2026-05-30T13:49:06.840768",
        "MEAN_MOTION": 14.19627712,
        "ECCENTRICITY": 0.0023229,
        "INCLINATION": 71.0152,
        "RA_OF_ASC_NODE": 255.3964,
        "ARG_OF_PERICENTER": 218.8681,
        "MEAN_ANOMALY": 141.0775,
        "EPHEMERIS_TYPE": 0,
        "CLASSIFICATION_TYPE": "U",
        "NORAD_CAT_ID": 19120,
        "ELEMENT_SET_NO": 999,
        "REV_AT_EPOCH": 97000,
        "BSTAR": -2.8233e-05,
        "MEAN_MOTION_DOT": -1.08e-06,
        "MEAN_MOTION_DDOT": 0
    },
    {
        "OBJECT_NAME": "COSMOS 1953",
        "OBJECT_ID": "1988-050A",
        "EPOCH": "2026-05-30T19:35:41.089056",
        "MEAN_MOTION": 15.29708539,
        "ECCENTRICITY": 0.001039,
        "INCLINATION": 82.5087,
        "RA_OF_ASC_NODE": 75.5451,
        "ARG_OF_PERICENTER": 182.4646,
        "MEAN_ANOMALY": 177.6544,
        "EPHEMERIS_TYPE": 0,
        "CLASSIFICATION_TYPE": "U",
        "NORAD_CAT_ID": 19210,
        "ELEMENT_SET_NO": 999,
        "REV_AT_EPOCH": 5033,
        "BSTAR": 0.00035254,
        "MEAN_MOTION_DOT": 0.00010194,
        "MEAN_MOTION_DDOT": 0
    },
    {
        "OBJECT_NAME": "SL-8 R/B",
        "OBJECT_ID": "1988-053B",
        "EPOCH": "2026-05-30T20:12:28.773216",
        "MEAN_MOTION": 14.38959191,
        "ECCENTRICITY": 0.0019398,
        "INCLINATION": 74.0475,
        "RA_OF_ASC_NODE": 321.0316,
        "ARG_OF_PERICENTER": 122.6396,
        "MEAN_ANOMALY": 342.3755,
        "EPHEMERIS_TYPE": 0,
        "CLASSIFICATION_TYPE": "U",
        "NORAD_CAT_ID": 19257,
        "ELEMENT_SET_NO": 999,
        "REV_AT_EPOCH": 98841,
        "BSTAR": 0.00011525,
        "MEAN_MOTION_DOT": 3.3e-06,
        "MEAN_MOTION_DDOT": 0
    }
]