SL-14 R/B               
1 17567U 87024B   26150.57783466  .00000498  00000+0  53843-4 0  9994
2 17567  82.5291  15.8030 0018054 354.5431   5.5585 14.86200327100298
COSMOS 1833             
1 17589U 87027A   26150.48156834  .00000229  00000+0  14815-3 0  9991
2 17589  70.9142 154.0865 0022452  84.6278 275.7404 14.13037605 21871
SL-16 R/B               
1 17590U 87027B   26150.85240963 -.00000127  00000+0 -39094-4 0  9997
2 17590  71.0019 103.3566 0005652 332.6521  27.4304 14.17169087 26985
SL-14 R/B               
1 17912U 87038B   26150.61482182  .00000475  00000+0  52260-4 0  9996
2 17912  82.5022 219.6231 0017759 252.3335 107.5942 14.85433466 91391
COSMOS 1844             
1 17973U 87041A   26150.64081602  .00000083  00000+0  68261-4 0  9995
2 17973  70.8998 221.3166 0033267 260.4370  99.2992 14.14569436 15171
SL-14 R/B               
1 18153U 87055B   26150.84688087  .00000559  00000+0  61330-4 0  9991
2 18153  82.4990 271.5749 0022136 101.3234 259.0471 14.85696526 82139
COSMOS 1867             
1 18187U 87060A   26150.80770432 -.00000039  00000+0  22942-4 0  9996
2 18187  65.0110  76.7299 0016162 281.9229  78.0043 14.31513686 31698
COSMOS 1933             
1 18958U 88020A   26150.51085883  .00003982  00000+0  19114-3 0  9991
2 18958  82.5118 169.9388 0002246 274.8766  85.2211 15.18593419 62649
SL-3 R/B                
1 19046U 88032B   26150.80665584  .00005515  00000+0  25231-3 0  9998
2 19046  97.5244 133.8677 0024061 310.3182  49.5950 15.20691142 64585
SL-16 R/B               
1 19120U 88039B   26150.57577362 -.00000108  00000+0 -28233-4 0  9999
2 19120  71.0152 255.3964 0023229 218.8681 141.0775 14.19627712970008
COSMOS 1953             
1 19210U 88050A   26150.81644779  .00010194  00000+0  35254-3 0  9990
2 19210  82.5087  75.5451 0010390 182.4646 177.6544 15.29708539 50330
SL-8 R/B                
1 19257U 88053B   26150.84199969  .00000330  00000+0  11525-3 0  9999
2 19257  74.0475 321.0316 0019398 122.6396 342.3755 14.38959191988417
